[{"OBJECT_NAME":"STARLINK-34291","OBJECT_ID":"2025-126R","EPOCH":"2026-03-09T07:03:09.205056","MEAN_MOTION":14.98331543,"ECCENTRICITY":0.00027877,"INCLINATION":70.0032,"RA_OF_ASC_NODE":35.4075,"ARG_OF_PERICENTER":257.6195,"MEAN_ANOMALY":102.4652,"EPHEMERIS_TYPE":0,"CLASSIFICATION_TYPE":"U","NORAD_CAT_ID":64359,"ELEMENT_SET_NO":999,"REV_AT_EPOCH":4062,"BSTAR":0.00017897491,"MEAN_MOTION_DOT":2.043e-5,"MEAN_MOTION_DDOT":0},{"OBJECT_NAME":"CZ-6A DEB","OBJECT_ID":"2024-140YA","EPOCH":"2026-03-09T14:26:17.481408","MEAN_MOTION":14.80843651,"ECCENTRICITY":0.009905,"INCLINATION":89.0273,"RA_OF_ASC_NODE":282.6505,"ARG_OF_PERICENTER":174.5462,"MEAN_ANOMALY":185.6867,"EPHEMERIS_TYPE":0,"CLASSIFICATION_TYPE":"U","NORAD_CAT_ID":61409,"ELEMENT_SET_NO":999,"REV_AT_EPOCH":8023,"BSTAR":0.0018081,"MEAN_MOTION_DOT":0.00015217,"MEAN_MOTION_DDOT":0}]
